NORAD_CAT_ID,OBJECT_NAME,OBJECT_TYPE,EPOCH,MEAN_MOTION,ECCENTRICITY,INCLINATION,RA_OF_ASC_NODE,ARG_OF_PERICENTER,MEAN_ANOMALY,BSTAR,MEAN_MOTION_DOT,MEAN_MOTION_DDOT,TLE_LINE0,TLE_LINE1,TLE_LINE2,SEMIMAJOR_AXIS,PERIOD,APOGEE,PERIGEE,DECAYED
55769.0,STARLINK-5584,PAYLOAD,2023-06-11 14:00:01,15.54874264,0.0003543,69.9992,234.7777,276.5618,161.8327,-0.014038,-0.00859468,0.0,0 STARLINK-5584,1 55769U 23028AE  23162.58334491 -.00859468  00000-0 -14038-1 0  9997,2 55769  69.9992 234.7777 0003543 276.5618 161.8327 15.54874264 16321,6780.655,92.612,404.923,400.118,0.0
55769.0,STARLINK-5584,PAYLOAD,2023-06-11 22:00:00,15.54231026,0.0003418,69.9992,233.8616,273.3662,229.9543,-0.014947,-0.00890712,0.0,0 STARLINK-5584,1 55769U 23028AE  23162.91667824 -.00890712  00000-0 -14947-1 0  9999,2 55769  69.9992 233.8616 0003418 273.3662 229.9543 15.54231026  1309,6782.526,92.65,406.709,402.073,0.0
55769.0,STARLINK-5584,PAYLOAD,2023-06-12 06:00:00,15.53632453,0.0003361,69.9998,232.9469,268.7648,298.6761,-0.016673,-0.00978239,0.0,0 STARLINK-5584,1 55769U 23028AE  23163.25001157 -.00978239  00000-0 -16673-1 0  9997,2 55769  69.9998 232.9469 0003361 268.7648 298.6761 15.53632453 16422,6784.268,92.686,408.413,403.853,0.0
55769.0,STARLINK-5584,PAYLOAD,2023-06-12 14:00:01,15.52921485,0.0003391,69.9996,232.0326,274.5912,356.2902,-0.015176,-0.00864601,0.0,0 STARLINK-5584,1 55769U 23028AE  23163.58335648 -.00864601  00000-0 -15176-1 0  9992,2 55769  69.9996 232.0326 0003391 274.5912 356.2902 15.52921485  1309,6786.338,92.728,410.505,405.902,0.0
55769.0,STARLINK-5584,PAYLOAD,2023-06-12 22:00:00,15.52266509,0.0003418,69.9994,231.1192,271.6299,61.7705,-0.015816,-0.00878627,0.0,0 STARLINK-5584,1 55769U 23028AE  23163.91667824 -.00878627  00000-0 -15816-1 0  9997,2 55769  69.9994 231.1192 0003418 271.6299  61.7705 15.52266509 16533,6788.247,92.768,412.432,407.792,0.0
55769.0,STARLINK-5584,PAYLOAD,2023-06-13 00:00:00,15.52072202,0.0003452,69.9995,230.8911,271.1414,167.7864,-0.014562,-0.00809344,0.0,0 STARLINK-5584,1 55769U 23028AE  23164.00001157 -.00809344  00000-0 -14562-1 0  9996,2 55769  69.9995 230.8911 0003452 271.1414 167.7864 15.52072202  1308,6788.814,92.779,413.022,408.335,0.0
55769.0,STARLINK-5584,PAYLOAD,2023-06-13 06:00:02,15.51504105,0.0003501,69.9998,230.2069,268.3404,126.9236,-0.0072772,-0.00410342,0.0,0 STARLINK-5584,1 55769U 23028AE  23164.25002315 -.00410342  00000-0 -72772-2 0  9994,2 55769  69.9998 230.2069 0003501 268.3404 126.9236 15.51504105 16588,6790.471,92.813,414.713,409.958,0.0
55769.0,STARLINK-5584,PAYLOAD,2023-06-13 14:00:01,15.51199308,0.0003587,69.9999,229.2952,275.5635,180.7026,0.00079688,0.00046881,0.0,0 STARLINK-5584,1 55769U 23028AE  23164.58334491  .00046881  00000-0  79688-3 0  9998,2 55769  69.9999 229.2952 0003587 275.5635 180.7026 15.51199308 16634,6791.36,92.831,415.661,410.789,0.0
55769.0,STARLINK-5584,PAYLOAD,2023-06-13 22:00:00,15.5120887,0.0003582,69.9997,228.3839,271.3136,245.8625,0.00011265,6.454e-05,0.0,0 STARLINK-5584,1 55769U 23028AE  23164.91667824  .00006454  00000-0  11265-3 0  9993,2 55769  69.9997 228.3839 0003582 271.3136 245.8625 15.51208870  1302,6791.332,92.831,415.63,410.765,0.0
55769.0,STARLINK-5584,PAYLOAD,2023-06-14 06:00:00,15.51251108,0.000359,69.9999,227.4728,269.0732,308.9901,-0.00056238,-0.00033094,0.0,0 STARLINK-5584,1 55769U 23028AE  23165.25001157 -.00033094  00000-0 -56238-3 0  9993,2 55769  69.9999 227.4728 0003590 269.0732 308.9901 15.51251108 16739,6791.209,92.828,415.512,410.636,0.0
55769.0,STARLINK-5584,PAYLOAD,2023-06-14 14:00:01,15.5128776,0.0003664,69.9997,226.5615,274.0359,4.9473,-0.0031172,-0.00179602,0.0,0 STARLINK-5584,1 55769U 23028AE  23165.58334491 -.00179602  00000-0 -31172-2 0  9994,2 55769  69.9997 226.5615 0003664 274.0359   4.9473 15.51287760  1302,6791.102,92.826,415.455,410.479,0.0
55769.0,STARLINK-5584,PAYLOAD,2023-06-14 22:00:00,15.51199734,0.000363,69.9997,225.6499,268.4672,71.4541,-0.015501,-0.00832886,0.0,0 STARLINK-5584,1 55769U 23028AE  23165.91667824 -.00832886  00000-0 -15501-1 0  9997,2 55769  69.9997 225.6499 0003630 268.4672  71.4541 15.51199734 16843,6791.359,92.831,415.689,410.759,0.0
55769.0,STARLINK-5584,PAYLOAD,2023-06-15 14:00:01,15.49928443,0.0003272,69.9998,223.8292,273.7598,186.4541,-0.017253,-0.00881197,0.0,0 STARLINK-5584,1 55769U 23028AE  23166.58334491 -.00881197  00000-0 -17253-1 0  9997,2 55769  69.9998 223.8292 0003272 273.7598 186.4541 15.49928443 16945,6795.072,92.908,419.161,414.714,0.0
55769.0,STARLINK-5584,PAYLOAD,2023-06-15 20:00:01,15.49445763,0.0003281,69.9995,223.1473,269.695,144.8264,-0.018078,-0.00917704,0.0,0 STARLINK-5584,1 55769U 23028AE  23166.83334491 -.00917704  00000-0 -18078-1 0  9995,2 55769  69.9995 223.1473 0003281 269.6950 144.8264 15.49445763  1305,6796.483,92.936,420.578,416.118,0.0
55769.0,STARLINK-5584,PAYLOAD,2023-06-16 06:00:00,15.48657224,0.0003244,69.9998,222.0119,266.2947,311.0843,-0.019418,-0.00955379,0.0,0 STARLINK-5584,1 55769U 23028AE  23167.25001157 -.00955379  00000-0 -19418-1 0  9991,2 55769  69.9998 222.0119 0003244 266.2947 311.0843 15.48657224 17046,6798.79,92.984,422.861,418.45,0.0
55769.0,STARLINK-5584,PAYLOAD,2023-06-16 14:00:01,15.47973225,0.0003299,69.9996,221.1044,273.6799,1.1193,-0.018517,-0.00882644,0.0,0 STARLINK-5584,1 55769U 23028AE  23167.58334491 -.00882644  00000-0 -18517-1 0  9990,2 55769  69.9996 221.1044 0003299 273.6799   1.1193 15.47973225  1306,6800.793,93.025,424.901,420.414,0.0
55769.0,STARLINK-5584,PAYLOAD,2023-06-16 22:00:00,15.47297088,0.0003373,69.9993,220.1981,270.003,61.4364,-0.018234,-0.00851779,0.0,0 STARLINK-5584,1 55769U 23028AE  23167.91667824 -.00851779  00000-0 -18234-1 0  9997,2 55769  69.9993 220.1981 0003373 270.0030  61.4364 15.47297088 17159,6802.774,93.066,426.933,422.344,0.0
55769.0,STARLINK-5584,PAYLOAD,2023-06-17 12:06:21,15.47938933,0.0004709,69.9961,218.6051,203.0328,157.0646,-0.0052217,-0.0026453,0.0,0 STARLINK-5584,1 55769U 23028AE  23168.50441828 -.00264530  00000-0 -52217-2 0  9990,2 55769  69.9961 218.6051 0004709 203.0328 157.0646 15.47938933 17251,6800.893,93.027,425.961,419.556,0.0
55769.0,STARLINK-5584,PAYLOAD,2023-06-17 13:39:35,15.47780954,0.0002661,69.9971,218.4309,276.4811,83.607,-0.0055099,-0.00277028,0.0,0 STARLINK-5584,1 55769U 23028AE  23168.56916420 -.00277028  00000-0 -55099-2 0  9998,2 55769  69.9971 218.4309 0002661 276.4811  83.6070 15.47780954 17266,6801.356,93.036,425.031,421.411,0.0
55769.0,STARLINK-5584,PAYLOAD,2023-06-17 14:00:01,15.46016199,0.000338,69.9989,218.3879,276.7787,165.5662,-0.019788,-0.00893228,0.0,0 STARLINK-5584,1 55769U 23028AE  23168.58334491 -.00893228  00000-0 -19788-1 0  9992,2 55769  69.9989 218.3879 0003380 276.7787 165.5662 15.46016199 17258,6806.531,93.143,430.696,426.095,0.0
55769.0,STARLINK-5584,PAYLOAD,2023-06-18 06:00:00,15.44742215,0.0003361,69.9992,216.5816,268.5111,281.6139,-0.022218,-0.0095454,0.0,0 STARLINK-5584,1 55769U 23028AE  23169.25001157 -.00954540  00000-0 -22218-1 0  9994,2 55769  69.9992 216.5816 0003361 268.5111 281.6139 15.44742215 17355,6810.273,93.219,434.427,429.849,0.0
55769.0,STARLINK-5584,PAYLOAD,2023-06-18 12:57:56,15.45897661,0.0004557,69.997,215.8005,272.5179,87.5483,-0.005679,-0.00267964,0.0,0 STARLINK-5584,1 55769U 23028AE  23169.54023479 -.00267964  00000-0 -56790-2 0  9997,2 55769  69.9970 215.8005 0004557 272.5179  87.5483 15.45897661 17419,6806.879,93.15,431.846,425.642,0.0
55769.0,STARLINK-5584,PAYLOAD,2023-06-18 22:00:00,15.43379456,0.0003522,69.9986,214.7783,267.2176,27.5771,-0.020568,-0.00840912,0.0,0 STARLINK-5584,1 55769U 23028AE  23169.91667824 -.00840912  00000-0 -20568-1 0  9999,2 55769  69.9986 214.7783 0003522 267.2176  27.5771 15.43379456 17460,6814.281,93.302,438.546,433.746,0.0
55769.0,STARLINK-5584,PAYLOAD,2023-06-19 12:00:00,15.42249928,0.0003576,69.9987,213.2034,273.735,20.0647,-0.021917,-0.00872107,0.0,0 STARLINK-5584,1 55769U 23028AE  23170.50001157 -.00872107  00000-0 -21917-1 0  9997,2 55769  69.9987 213.2034 0003576 273.7350  20.0647 15.42249928 17558,6817.608,93.37,441.911,437.035,0.0
55769.0,STARLINK-5584,PAYLOAD,2023-06-19 12:18:02,15.43998846,0.0004145,69.9963,213.1727,266.5576,93.5133,-0.006055,-0.00267775,0.0,0 STARLINK-5584,1 55769U 23028AE  23170.51253028 -.00267775  00000-0 -60550-2 0  9990,2 55769  69.9963 213.1727 0004145 266.5576  93.5133 15.43998846 17560,6812.458,93.264,437.147,431.5,0.0
55769.0,STARLINK-5584,PAYLOAD,2023-06-19 22:00:00,15.4142069,0.0003502,69.9984,212.0802,270.9592,174.9543,-0.021897,-0.00849245,0.0,0 STARLINK-5584,1 55769U 23028AE  23170.91667824 -.00849245  00000-0 -21897-1 0  9995,2 55769  69.9984 212.0802 0003502 270.9592 174.9543 15.41420690 17618,6820.053,93.42,444.306,439.529,0.0
55769.0,STARLINK-5584,PAYLOAD,2023-06-20 04:00:00,15.41002918,0.0003589,69.9985,211.4069,269.4995,123.0695,-0.025483,-0.0096421,0.0,0 STARLINK-5584,1 55769U 23028AE  23171.16667824 -.00964210  00000-0 -25483-1 0  9998,2 55769  69.9985 211.4069 0003589 269.4995 123.0695 15.41002918 17658,6821.285,93.446,445.598,440.702,0.0
55769.0,STARLINK-5584,PAYLOAD,2023-06-20 14:00:01,15.40153511,0.0003373,69.9983,210.2858,275.4242,267.3091,-0.024463,-0.00904854,0.0,0 STARLINK-5584,1 55769U 23028AE  23171.58334491 -.00904854  00000-0 -24463-1 0  9990,2 55769  69.9983 210.2858 0003373 275.4242 267.3091 15.40153511  1304,6823.793,93.497,447.96,443.356,0.0
55769.0,STARLINK-5584,PAYLOAD,2023-06-20 22:00:00,15.39463103,0.0003351,69.9983,209.39,268.6653,321.3247,-0.023273,-0.00846087,0.0,0 STARLINK-5584,1 55769U 23028AE  23171.91667824 -.00846087  00000-0 -23273-1 0  9997,2 55769  69.9983 209.3900 0003351 268.6653 321.3247 15.39463103 17767,6825.833,93.539,449.985,445.411,0.0
55769.0,STARLINK-5584,PAYLOAD,2023-06-21 06:00:00,15.38864284,0.0003451,69.9983,208.4953,269.7472,6.6917,-0.026867,-0.00948511,0.0,0 STARLINK-5584,1 55769U 23028AE  23172.25001157 -.00948511  00000-0 -26867-1 0  9993,2 55769  69.9983 208.4953 0003451 269.7472   6.6917 15.38864284 17825,6827.604,93.576,451.825,447.112,0.0
